OBJECT_NAME,OBJECT_ID,EPOCH,MEAN_MOTION,ECCENTRICITY,INCLINATION,RA_OF_ASC_NODE,ARG_OF_PERICENTER,MEAN_ANOMALY,EPHEMERIS_TYPE,CLASSIFICATION_TYPE,NORAD_CAT_ID,ELEMENT_SET_NO,REV_AT_EPOCH,BSTAR,MEAN_MOTION_DOT,MEAN_MOTION_DDOT
SAUDISAT 1C (SO-50),2002-058C,2026-06-26T06:12:23.852160,14.83064844,.00750481,64.5520,100.9188,260.7782,98.4830,0,U,27607,999,26580,.12776643E-3,.937E-5,0
SAUDISAT 2,2004-025F,2026-06-26T05:35:57.594336,14.56688640,.0023437,98.5508,177.4490,269.0233,90.8279,0,U,28371,999,16706,.66702489E-4,.249E-5,0
SAUDISAT 3,2007-012B,2026-06-25T19:50:48.998400,14.71430111,.00142089,98.1457,127.2332,194.8423,165.2368,0,U,31118,999,2901,.46631605E-4,.238E-5,0
PISAT,2016-059B,2026-06-25T23:58:34.667040,14.68997282,.00291194,97.8179,177.0732,174.3760,185.7778,0,U,41784,999,52103,.15416179E-3,.862E-5,0
FLYING LAPTOP,2017-042G,2026-06-26T06:01:10.024608,15.01201603,.00199722,97.4724,332.4369,92.7991,267.5520,0,U,42831,999,48781,.3290638E-3,.4183E-4,0
SALSAT,2020-068K,2026-06-26T05:41:28.260960,15.29920409,.00078065,97.8850,180.8533,269.3703,90.6642,0,U,46495,999,31674,.29407466E-3,.8443E-4,0
